{
  "type": "FeatureCollection",
  "features": [
    {
      "type": "Feature",
      "properties": {
        "norad_id": 66907,
        "name": "1998-067XT",
        "group": "last-30-days",
        "lat": 35.40691183487393,
        "lon": -166.3649631490533,
        "alt_km": 412.73552308668604,
        "timestamp": "2025-12-09T07:41:31.974033+00:00",
        "meta_object_name": "1998-067XT",
        "meta_object_id": "1998-067XT",
        "meta_epoch": "2025-12-08T19:06:53.694720",
        "meta_mean_motion": 15.50762002,
        "meta_eccentricity": 0.00049716,
        "meta_inclination": 51.6302,
        "meta_ra_of_asc_node": 161.9586,
        "meta_arg_of_pericenter": 204.3216,
        "meta_mean_anomaly": 155.7539,
        "meta_ephemeris_type": 0,
        "meta_classification_type": "U",
        "meta_norad_cat_id": 66907,
        "meta_element_set_no": 999,
        "meta_rev_at_epoch": 100,
        "meta_bstar": 0.0012614232,
        "meta_mean_motion_dot": 0.00074227,
        "meta_mean_motion_ddot": 0,
        "tle_line1": "1 66907U 98067XT  25342.79645480  .00074227  00000+0  12614-2 0  9994",
        "tle_line2": "2 66907  51.6302 161.9586 0004971 204.3216 155.7539 15.50762002  1006"
      },
      "geometry": {
        "type": "Point",
        "coordinates": [
          -166.3649631490533,
          35.40691183487393
        ]
      }
    },
    {
      "type": "Feature",
      "properties": {
        "norad_id": 66908,
        "name": "1998-067XU",
        "group": "last-30-days",
        "lat": 36.11002695541512,
        "lon": -165.33624977137967,
        "alt_km": 412.5983755242696,
        "timestamp": "2025-12-09T07:41:31.974044+00:00",
        "meta_object_name": "1998-067XU",
        "meta_object_id": "1998-067XU",
        "meta_epoch": "2025-12-08T22:12:12.981600",
        "meta_mean_motion": 15.50818267,
        "meta_eccentricity": 0.00051673,
        "meta_inclination": 51.6297,
        "meta_ra_of_asc_node": 161.3178,
        "meta_arg_of_pericenter": 203.3313,
        "meta_mean_anomaly": 156.7442,
        "meta_ephemeris_type": 0,
        "meta_classification_type": "U",
        "meta_norad_cat_id": 66908,
        "meta_element_set_no": 999,
        "meta_rev_at_epoch": 102,
        "meta_bstar": 0.0011183297,
        "meta_mean_motion_dot": 0.00065818,
        "meta_mean_motion_ddot": 0,
        "tle_line1": "1 66908U 98067XU  25342.92515025  .00065818  00000+0  11183-2 0  9997",
        "tle_line2": "2 66908  51.6297 161.3178 0005167 203.3313 156.7442 15.50818267  1027"
      },
      "geometry": {
        "type": "Point",
        "coordinates": [
          -165.33624977137967,
          36.11002695541512
        ]
      }
    },
    {
      "type": "Feature",
      "properties": {
        "norad_id": 66909,
        "name": "SILVERSAT",
        "group": "last-30-days",
        "lat": 36.6512737253044,
        "lon": -164.5233815191573,
        "alt_km": 412.1424515337685,
        "timestamp": "2025-12-09T07:41:31.974054+00:00",
        "meta_object_name": "SILVERSAT",
        "meta_object_id": "1998-067XV",
        "meta_epoch": "2025-12-08T17:33:40.093920",
        "meta_mean_motion": 15.50878297,
        "meta_eccentricity": 0.0005012,
        "meta_inclination": 51.6297,
        "meta_ra_of_asc_node": 162.2763,
        "meta_arg_of_pericenter": 204.4469,
        "meta_mean_anomaly": 155.6283,
        "meta_ephemeris_type": 0,
        "meta_classification_type": "U",
        "meta_norad_cat_id": 66909,
        "meta_element_set_no": 999,
        "meta_rev_at_epoch": 99,
        "meta_bstar": 0.0013404205,
        "meta_mean_motion_dot": 0.00079284,
        "meta_mean_motion_ddot": 0,
        "tle_line1": "1 66909U 98067XV  25342.73171405  .00079284  00000+0  13404-2 0  9997",
        "tle_line2": "2 66909  51.6297 162.2763 0005012 204.4469 155.6283 15.50878297   996"
      },
      "geometry": {
        "type": "Point",
        "coordinates": [
          -164.5233815191573,
          36.6512737253044
        ]
      }
    },
    {
      "type": "Feature",
      "properties": {
        "norad_id": 66910,
        "name": "1998-067XW",
        "group": "last-30-days",
        "lat": 40.49329883610146,
        "lon": -158.08533872646223,
        "alt_km": 410.6956256484773,
        "timestamp": "2025-12-09T07:41:31.974066+00:00",
        "meta_object_name": "1998-067XW",
        "meta_object_id": "1998-067XW",
        "meta_epoch": "2025-12-08T22:10:28.282944",
        "meta_mean_motion": 15.51110893,
        "meta_eccentricity": 0.00059267,
        "meta_inclination": 51.6296,
        "meta_ra_of_asc_node": 161.31,
        "meta_arg_of_pericenter": 189.6161,
        "meta_mean_anomaly": 170.4716,
        "meta_ephemeris_type": 0,
        "meta_classification_type": "U",
        "meta_norad_cat_id": 66910,
        "meta_element_set_no": 999,
        "meta_rev_at_epoch": 102,
        "meta_bstar": 0.0011400627,
        "meta_mean_motion_dot": 0.00067841,
        "meta_mean_motion_ddot": 0,
        "tle_line1": "1 66910U 98067XW  25342.92393846  .00067841  00000+0  11401-2 0  9996",
        "tle_line2": "2 66910  51.6296 161.3100 0005926 189.6161 170.4716 15.51110893  1022"
      },
      "geometry": {
        "type": "Point",
        "coordinates": [
          -158.08533872646223,
          40.49329883610146
        ]
      }
    },
    {
      "type": "Feature",
      "properties": {
        "norad_id": 66911,
        "name": "1998-067XX",
        "group": "last-30-days",
        "lat": 41.387107086267214,
        "lon": -156.37910772077703,
        "alt_km": 410.00839011929565,
        "timestamp": "2025-12-09T07:41:31.974077+00:00",
        "meta_object_name": "1998-067XX",
        "meta_object_id": "1998-067XX",
        "meta_epoch": "2025-12-08T19:04:34.996800",
        "meta_mean_motion": 15.51222448,
        "meta_eccentricity": 0.00057546,
        "meta_inclination": 51.6294,
        "meta_ra_of_asc_node": 161.9483,
        "meta_arg_of_pericenter": 189.9159,
        "meta_mean_anomaly": 170.1718,
        "meta_ephemeris_type": 0,
        "meta_classification_type": "U",
        "meta_norad_cat_id": 66911,
        "meta_element_set_no": 999,
        "meta_rev_at_epoch": 99,
        "meta_bstar": 0.0014184856,
        "meta_mean_motion_dot": 0.00085043,
        "meta_mean_motion_ddot": 0,
        "tle_line1": "1 66911U 98067XX  25342.79484950  .00085043  00000+0  14185-2 0  9995",
        "tle_line2": "2 66911  51.6294 161.9483 0005754 189.9159 170.1718 15.51222448   994"
      },
      "geometry": {
        "type": "Point",
        "coordinates": [
          -156.37910772077703,
          41.387107086267214
        ]
      }
    },
    {
      "type": "Feature",
      "properties": {
        "norad_id": 66912,
        "name": "1998-067XY",
        "group": "last-30-days",
        "lat": 33.891323466246426,
        "lon": -168.48131997933356,
        "alt_km": 413.58355597994705,
        "timestamp": "2025-12-09T07:41:31.974087+00:00",
        "meta_object_name": "1998-067XY",
        "meta_object_id": "1998-067XY",
        "meta_epoch": "2025-12-08T19:07:24.190464",
        "meta_mean_motion": 15.50590013,
        "meta_eccentricity": 0.00050406,
        "meta_inclination": 51.6301,
        "meta_ra_of_asc_node": 161.961,
        "meta_arg_of_pericenter": 202.8515,
        "meta_mean_anomaly": 157.2251,
        "meta_ephemeris_type": 0,
        "meta_classification_type": "U",
        "meta_norad_cat_id": 66912,
        "meta_element_set_no": 999,
        "meta_rev_at_epoch": 99,
        "meta_bstar": 0.0010396633,
        "meta_mean_motion_dot": 0.00060617,
        "meta_mean_motion_ddot": 0,
        "tle_line1": "1 66912U 98067XY  25342.79680776  .00060617  00000+0  10397-2 0  9991",
        "tle_line2": "2 66912  51.6301 161.9610 0005040 202.8515 157.2251 15.50590013   998"
      },
      "geometry": {
        "type": "Point",
        "coordinates": [
          -168.48131997933356,
          33.891323466246426
        ]
      }
    },
    {
      "type": "Feature",
      "properties": {
        "norad_id": 66913,
        "name": "2025-284A",
        "group": "last-30-days",
        "lat": 77.88324394909263,
        "lon": -97.89405650736319,
        "alt_km": 507.29167126756874,
        "timestamp": "2025-12-09T07:41:31.974097+00:00",
        "meta_object_name": "2025-284A",
        "meta_object_id": "2025-284A",
        "meta_epoch": "2025-12-08T23:21:31.399776",
        "meta_mean_motion": 15.18805631,
        "meta_eccentricity": 0.00080378,
        "meta_inclination": 80.4053,
        "meta_ra_of_asc_node": 134.539,
        "meta_arg_of_pericenter": 258.9868,
        "meta_mean_anomaly": 101.0456,
        "meta_ephemeris_type": 0,
        "meta_classification_type": "U",
        "meta_norad_cat_id": 66913,
        "meta_element_set_no": 999,
        "meta_rev_at_epoch": 55,
        "meta_bstar": 0.00059050867,
        "meta_mean_motion_dot": 0.00012323,
        "meta_mean_motion_ddot": 0,
        "tle_line1": "1 66913U 25284A   25342.97328009  .00012323  00000+0  59051-3 0  9993",
        "tle_line2": "2 66913  80.4053 134.5390 0008037 258.9868 101.0456 15.18805631   551"
      },
      "geometry": {
        "type": "Point",
        "coordinates": [
          -97.89405650736319,
          77.88324394909263
        ]
      }
    }
  ]
}